[Satellite]
VERSION=1.1
NAME=UOSAT 2 (UO-11)
NICKNAME=UO-11
TLE1=1 14781U 84021B   20157.75287624  .00000093  00000-0  17518-4 0  9990
TLE2=2 14781  97.5902 170.3098 0007170 233.7326 126.3227 14.83170136951095
STATUS=0
